ONEWEB-0229             
1 48779U 21045N   25310.44194522  .00000188  00000+0  46549-3 0  9996
2 48779  87.8954 303.6364 0001845  93.3811 266.7531 13.15549559215124
ONEWEB-0228             
1 48780U 21045P   25310.47536139 -.00000117  00000+0 -34532-3 0  9998
2 48780  87.8963 303.6097 0001941  92.6975 267.4378 13.15550201215043
ONEWEB-0232             
1 48781U 21045Q   25310.44986815  .00000082  00000+0  18271-3 0  9997
2 48781  87.8966 303.6059 0001865  90.9000 269.2344 13.15550339215360
ONEWEB-0231             
1 48782U 21045R   25310.42769505  .00000153  00000+0  37119-3 0  9992
2 48782  87.8955 303.6579 0002041  98.1044 262.0318 13.15549570215054
ONEWEB-0234             
1 48783U 21045S   25310.46557529 -.00000110  00000+0 -32726-3 0  9992
2 48783  87.8960 303.6224 0002264  67.8086 292.3284 13.15549922215198
ONEWEB-0238             
1 48784U 21045T   25310.46586617 -.00000148  00000+0 -42678-3 0  9991
2 48784  87.8957 303.6167 0001976  80.1459 279.9895 13.15547193215098
ONEWEB-0240             
1 48785U 21045U   25310.48711866 -.00000077  00000+0 -23729-3 0  9997
2 48785  87.8976 303.6013 0002242  89.8129 270.3258 13.15550635215124
ONEWEB-0246             
1 48786U 21045V   25310.48157189 -.00000075  00000+0 -23374-3 0  9994
2 48786  87.8966 303.6152 0001864  95.5567 264.5776 13.15549659214995
